QIANFAN-89              
1 63175U 25046S   25290.29129775  .00000176  00000+0  25371-3 0  9993
2 63175  88.9792 325.8817 0014431 290.8217  69.1388 13.50970609 39785
QIANFAN-90              
1 63176U 25046T   25290.24596691  .00000155  00000+0  22180-3 0  9996
2 63176  88.9792 325.8586 0011339 289.2900  70.7024 13.50972328 39790
